{"type": "FeatureCollection", "features": [{"type": "Feature", "properties": {"norad_id": 28890, "name": "BEIJING 1", "group": "dmc", "lat": 29.467993421550243, "lon": -65.84998408872075, "alt_km": 670.3075090226685, "timestamp": "2025-12-07T22:37:42.749499+00:00", "meta": {"OBJECT_NAME": "BEIJING 1", "OBJECT_ID": "2005-043A", "EPOCH": "2025-12-07T07:10:32.844000", "MEAN_MOTION": 14.63358455, "ECCENTRICITY": 0.00150769, "INCLINATION": 98.2657, "RA_OF_ASC_NODE": 108.7933, "ARG_OF_PERICENTER": 157.839, "MEAN_ANOMALY": 202.3467, "EPHEMERIS_TYPE": 0, "CLASSIFICATION_TYPE": "U", "NORAD_CAT_ID": 28890, "ELEMENT_SET_NO": 999, "REV_AT_EPOCH": 7258, "BSTAR": 0.00016966698, "MEAN_MOTION_DOT": 8.29e-06, "MEAN_MOTION_DDOT": 0}, "tle": {"line1": "1 28890U 05043A   25341.29899125  .00000829  00000+0  16967-3 0  9999", "line2": "2 28890  98.2657 108.7933 0015076 157.8390 202.3467 14.63358455 72589"}}, "geometry": {"type": "Point", "coordinates": [-65.84998408872075, 29.467993421550243]}}, {"type": "Feature", "properties": {"norad_id": 33320, "name": "HUANJING 1A (HJ-1A)", "group": "dmc", "lat": -12.649507200503953, "lon": 148.71205956260758, "alt_km": 634.6844014905973, "timestamp": "2025-12-07T22:37:42.749523+00:00", "meta": {"OBJECT_NAME": "HUANJING 1A (HJ-1A)", "OBJECT_ID": "2008-041A", "EPOCH": "2025-12-07T07:11:37.778784", "MEAN_MOTION": 14.83368551, "ECCENTRICITY": 0.00204787, "INCLINATION": 97.6537, "RA_OF_ASC_NODE": 329.8253, "ARG_OF_PERICENTER": 51.5636, "MEAN_ANOMALY": 308.7412, "EPHEMERIS_TYPE": 0, "CLASSIFICATION_TYPE": "U", "NORAD_CAT_ID": 33320, "ELEMENT_SET_NO": 999, "REV_AT_EPOCH": 92995, "BSTAR": 0.00034793522, "MEAN_MOTION_DOT": 2.812e-05, "MEAN_MOTION_DDOT": 0}, "tle": {"line1": "1 33320U 08041A   25341.29974281  .00002812  00000+0  34794-3 0  9993", "line2": "2 33320  97.6537 329.8253 0020478  51.5636 308.7412 14.83368551929952"}}, "geometry": {"type": "Point", "coordinates": [148.71205956260758, -12.649507200503953]}}, {"type": "Feature", "properties": {"norad_id": 33321, "name": "HUANJING 1B (HJ-1B)", "group": "dmc", "lat": 62.217273734218765, "lon": -40.60825738853744, "alt_km": 590.7064570689563, "timestamp": "2025-12-07T22:37:42.749538+00:00", "meta": {"OBJECT_NAME": "HUANJING 1B (HJ-1B)", "OBJECT_ID": "2008-041B", "EPOCH": "2025-12-07T06:09:00.096768", "MEAN_MOTION": 14.82799882, "ECCENTRICITY": 0.00382502, "INCLINATION": 97.6395, "RA_OF_ASC_NODE": 333.4949, "ARG_OF_PERICENTER": 93.1614, "MEAN_ANOMALY": 267.3977, "EPHEMERIS_TYPE": 0, "CLASSIFICATION_TYPE": "U", "NORAD_CAT_ID": 33321, "ELEMENT_SET_NO": 999, "REV_AT_EPOCH": 92996, "BSTAR": 0.00028937528, "MEAN_MOTION_DOT": 2.319e-05, "MEAN_MOTION_DDOT": 0}, "tle": {"line1": "1 33321U 08041B   25341.25625112  .00002319  00000+0  28938-3 0  9991", "line2": "2 33321  97.6395 333.4949 0038250  93.1614 267.3977 14.82799882929964"}}, "geometry": {"type": "Point", "coordinates": [-40.60825738853744, 62.217273734218765]}}, {"type": "Feature", "properties": {"norad_id": 33446, "name": "YAOGAN-4", "group": "dmc", "lat": -22.495991120545764, "lon": -84.6070157247548, "alt_km": 616.5347122278054, "timestamp": "2025-12-07T22:37:42.749550+00:00", "meta": {"OBJECT_NAME": "YAOGAN-4", "OBJECT_ID": "2008-061A", "EPOCH": "2025-12-07T06:32:00.675456", "MEAN_MOTION": 14.82655941, "ECCENTRICITY": 0.00140606, "INCLINATION": 97.9176, "RA_OF_ASC_NODE": 271.4251, "ARG_OF_PERICENTER": 341.8774, "MEAN_ANOMALY": 18.1937, "EPHEMERIS_TYPE": 0, "CLASSIFICATION_TYPE": "U", "NORAD_CAT_ID": 33446, "ELEMENT_SET_NO": 999, "REV_AT_EPOCH": 91722, "BSTAR": 0.0003352026, "MEAN_MOTION_DOT": 2.652e-05, "MEAN_MOTION_DDOT": 0}, "tle": {"line1": "1 33446U 08061A   25341.27223004  .00002652  00000+0  33520-3 0  9990", "line2": "2 33446  97.9176 271.4251 0014060 341.8774  18.1937 14.82655941917223"}}, "geometry": {"type": "Point", "coordinates": [-84.6070157247548, -22.495991120545764]}}, {"type": "Feature", "properties": {"norad_id": 35681, "name": "DEIMOS-1", "group": "dmc", "lat": -59.6661267752906, "lon": -50.62643255187866, "alt_km": 654.1562333724951, "timestamp": "2025-12-07T22:37:42.749562+00:00", "meta": {"OBJECT_NAME": "DEIMOS-1", "OBJECT_ID": "2009-041A", "EPOCH": "2025-12-07T06:53:16.658304", "MEAN_MOTION": 14.74940019, "ECCENTRICITY": 0.00026955, "INCLINATION": 97.7153, "RA_OF_ASC_NODE": 142.1446, "ARG_OF_PERICENTER": 90.5898, "MEAN_ANOMALY": 269.5621, "EPHEMERIS_TYPE": 0, "CLASSIFICATION_TYPE": "U", "NORAD_CAT_ID": 35681, "ELEMENT_SET_NO": 999, "REV_AT_EPOCH": 87859, "BSTAR": 0.00020617173, "MEAN_MOTION_DOT": 1.338e-05, "MEAN_MOTION_DDOT": 0}, "tle": {"line1": "1 35681U 09041A   25341.28699836  .00001338  00000+0  20617-3 0  9996", "line2": "2 35681  97.7153 142.1446 0002695  90.5898 269.5621 14.74940019878597"}}, "geometry": {"type": "Point", "coordinates": [-50.62643255187866, -59.6661267752906]}}, {"type": "Feature", "properties": {"norad_id": 35683, "name": "UK-DMC 2", "group": "dmc", "lat": -62.9869017937909, "lon": -78.73313299580903, "alt_km": 651.1940608694222, "timestamp": "2025-12-07T22:37:42.749574+00:00", "meta": {"OBJECT_NAME": "UK-DMC 2", "OBJECT_ID": "2009-041C", "EPOCH": "2025-12-07T06:52:44.852736", "MEAN_MOTION": 14.75603696, "ECCENTRICITY": 0.00013429, "INCLINATION": 97.8564, "RA_OF_ASC_NODE": 116.3437, "ARG_OF_PERICENTER": 101.6478, "MEAN_ANOMALY": 258.4882, "EPHEMERIS_TYPE": 0, "CLASSIFICATION_TYPE": "U", "NORAD_CAT_ID": 35683, "ELEMENT_SET_NO": 999, "REV_AT_EPOCH": 87826, "BSTAR": 0.00029255839, "MEAN_MOTION_DOT": 1.947e-05, "MEAN_MOTION_DDOT": 0}, "tle": {"line1": "1 35683U 09041C   25341.28663024  .00001947  00000+0  29256-3 0  9992", "line2": "2 35683  97.8564 116.3437 0001342 101.6478 258.4882 14.75603696878263"}}, "geometry": {"type": "Point", "coordinates": [-78.73313299580903, -62.9869017937909]}}, {"type": "Feature", "properties": {"norad_id": 40715, "name": "DMC3-FM1", "group": "dmc", "lat": 55.43239748903427, "lon": 40.58939279281687, "alt_km": 609.8426209290719, "timestamp": "2025-12-07T22:37:42.749584+00:00", "meta": {"OBJECT_NAME": "DMC3-FM1", "OBJECT_ID": "2015-032A", "EPOCH": "2025-12-07T05:54:23.429664", "MEAN_MOTION": 14.85425996, "ECCENTRICITY": 0.00050066, "INCLINATION": 97.6703, "RA_OF_ASC_NODE": 208.6387, "ARG_OF_PERICENTER": 341.2963, "MEAN_ANOMALY": 18.8068, "EPHEMERIS_TYPE": 0, "CLASSIFICATION_TYPE": "U", "NORAD_CAT_ID": 40715, "ELEMENT_SET_NO": 999, "REV_AT_EPOCH": 56141, "BSTAR": 0.00017855103, "MEAN_MOTION_DOT": 1.487e-05, "MEAN_MOTION_DDOT": 0}, "tle": {"line1": "1 40715U 15032A   25341.24610451  .00001487  00000+0  17855-3 0  9994", "line2": "2 40715  97.6703 208.6387 0005006 341.2963  18.8068 14.85425996561415"}}, "geometry": {"type": "Point", "coordinates": [40.58939279281687, 55.43239748903427]}}, {"type": "Feature", "properties": {"norad_id": 40716, "name": "DMC3-FM2", "group": "dmc", "lat": 3.3324857350461445, "lon": -149.69963687810545, "alt_km": 611.1226860580055, "timestamp": "2025-12-07T22:37:42.749595+00:00", "meta": {"OBJECT_NAME": "DMC3-FM2", "OBJECT_ID": "2015-032B", "EPOCH": "2025-12-07T06:26:47.638752", "MEAN_MOTION": 14.85427368, "ECCENTRICITY": 0.00056421, "INCLINATION": 97.676, "RA_OF_ASC_NODE": 210.1003, "ARG_OF_PERICENTER": 345.6248, "MEAN_ANOMALY": 14.4806, "EPHEMERIS_TYPE": 0, "CLASSIFICATION_TYPE": "U", "NORAD_CAT_ID": 40716, "ELEMENT_SET_NO": 999, "REV_AT_EPOCH": 56141, "BSTAR": 0.00018150328, "MEAN_MOTION_DOT": 1.513e-05, "MEAN_MOTION_DDOT": 0}, "tle": {"line1": "1 40716U 15032B   25341.26860693  .00001513  00000+0  18150-3 0  9991", "line2": "2 40716  97.6760 210.1003 0005642 345.6248  14.4806 14.85427368561419"}}, "geometry": {"type": "Point", "coordinates": [-149.69963687810545, 3.3324857350461445]}}, {"type": "Feature", "properties": {"norad_id": 40717, "name": "DMC3-FM3", "group": "dmc", "lat": -66.82411897850545, "lon": 14.003136187672185, "alt_km": 619.982985751737, "timestamp": "2025-12-07T22:37:42.749605+00:00", "meta": {"OBJECT_NAME": "DMC3-FM3", "OBJECT_ID": "2015-032C", "EPOCH": "2025-12-07T05:20:52.664928", "MEAN_MOTION": 14.85418512, "ECCENTRICITY": 0.00050013, "INCLINATION": 97.6815, "RA_OF_ASC_NODE": 211.6856, "ARG_OF_PERICENTER": 347.9494, "MEAN_ANOMALY": 12.1601, "EPHEMERIS_TYPE": 0, "CLASSIFICATION_TYPE": "U", "NORAD_CAT_ID": 40717, "ELEMENT_SET_NO": 999, "REV_AT_EPOCH": 56141, "BSTAR": 0.00015302192, "MEAN_MOTION_DOT": 1.267e-05, "MEAN_MOTION_DDOT": 0}, "tle": {"line1": "1 40717U 15032C   25341.22283177  .00001267  00000+0  15302-3 0  9996", "line2": "2 40717  97.6815 211.6856 0005001 347.9494  12.1601 14.85418512561419"}}, "geometry": {"type": "Point", "coordinates": [14.003136187672185, -66.82411897850545]}}]}